stk.v.10.0
# WrittenBy    GMAT R2022a
BEGIN Ephemeris
NumberOfEphemerisPoints 132
ScenarioEpoch           04 Nov 2025 18:51:00.000
CentralBody             Earth
CoordinateSystem        J2000
DistanceUnit            Kilometers

EphemerisTimePosVel

5.232291210908443e+03   6.083122383825807e+03  -2.004518662161501e+03  -2.486903451668559e+03   3.543106853499656e+00   4.178882517941617e+00   5.295057768500514e+00
5.325244276807643e+03   6.379595713901089e+03  -1.606126950426164e+03  -1.982349136326815e+03   2.830199656632211e+00   4.385426022751489e+00   5.551423165094722e+00
5.418179486738518e+03   6.608299351907378e+03  -1.190763923671302e+03  -1.456792592699692e+03   2.087200408456387e+00   4.545430636234083e+00   5.748712562316257e+00
5.511101755429991e+03   6.766836192595120e+03  -7.628205959818936e+02  -9.158050209320428e+02   1.322004037975246e+00   4.657197895829571e+00   5.884826566321624e+00
5.604016078705899e+03   6.853544460109430e+03  -3.268179884799666e+02  -3.651174226230337e+02   5.427453270972042e-01   4.719539876934106e+00   5.958314970644658e+00
5.696928661270067e+03   6.867514558415228e+03   1.126449790536975e+02   1.894455758493374e+02  -2.422981209537231e-01   4.731792928005434e+00   5.968393517404129e+00
5.789844292437192e+03   6.808596611187445e+03   5.509266104718693e+02   7.420104108262790e+02  -1.024773277639474e+00   4.693824173074105e+00   5.914951686291049e+00
5.882766613306012e+03   6.677407164280769e+03   9.833917775382288e+02   1.286717209979272e+03  -1.796344858592011e+00   4.606036688698283e+00   5.798558601482257e+00
5.975702220853418e+03   6.475316671417632e+03   1.405479119393887e+03   1.817804813763491e+03  -2.548820204655354e+00   4.469360673479501e+00   5.620450970433935e+00
6.068655860389117e+03   6.204439849582109e+03   1.812725671413017e+03   2.329642100648484e+03  -3.274197638869536e+00   4.285245507031660e+00   5.382522648577444e+00
6.161630678898655e+03   5.867619507001909e+03   2.200815332263971e+03   2.816789337265593e+03  -3.964756461262107e+00   4.055646744188543e+00   5.087307479372504e+00
6.254630269075278e+03   5.468392777467430e+03   2.565633261693326e+03   3.274066872081566e+03  -4.613156170832066e+00   3.783000516988154e+00   4.737946110728039e+00
6.347656357171945e+03   5.010964520566773e+03   2.903300076949541e+03   3.696598380334998e+03  -5.212498208402384e+00   3.470202495044236e+00   4.338158806243670e+00
6.440710012195632e+03   4.500161657642750e+03   3.210218920440782e+03   4.079870189230877e+03  -5.756409009988278e+00   3.120573830292535e+00   3.892201613683299e+00
6.533790819870774e+03   3.941388898911879e+03   3.483112054415431e+03   4.419777378294621e+03  -6.239102905442626e+00   2.737828324256905e+00   3.404824188773131e+00
6.626897234364878e+03   3.340572406157245e+03   3.719058985626061e+03   4.712671692364417e+03  -6.655446411519855e+00   2.326031894699531e+00   2.881217839916583e+00
6.720027872978244e+03   2.704089544398875e+03   3.915532137711257e+03   4.955406218675499e+03  -7.001017136264179e+00   1.889553264978663e+00   2.326952485166328e+00
6.813177750888281e+03   2.038727650390899e+03   4.070417849042670e+03   5.145361751379820e+03  -7.272136265714058e+00   1.433035449238360e+00   1.747940061609457e+00
6.906343650701456e+03   1.351575421240644e+03   4.182052265021782e+03   5.280491365676940e+03  -7.465927118768096e+00   9.613219616371073e-01   1.150340488597746e+00
6.999520953150932e+03   6.499680675813183e+02   4.249233525132694e+03   5.359335476134115e+03  -7.580332322734885e+00   4.794207560631824e-01   5.405156104576331e-01
7.092704358149786e+03  -5.859669501969123e+01   4.271237935316019e+03   5.381041644883296e+03  -7.614138781486279e+00  -7.551117257264466e-03  -7.504130574291062e-02
7.185888361930847e+03  -7.665438459149418e+02   4.247829149397543e+03   5.345375511655940e+03  -7.566991381545829e+00  -4.944231967241119e-01  -6.897764258348279e-01
7.279067350400146e+03  -1.466304552367345e+03   4.179261094319070e+03   5.252723797083517e+03  -7.439396947354589e+00  -9.760259163444832e-01  -1.297144389306573e+00
7.372236852964852e+03  -2.150408185508320e+03   4.066273631283372e+03   5.104088017191747e+03  -7.232716599623966e+00  -1.447250869730770e+00  -1.890684778357180e+00
7.465391715068836e+03  -2.811549943887015e+03   3.910085335221368e+03   4.901074729406524e+03  -6.949154465027090e+00  -1.903094647313671e+00  -2.464077796895976e+00
7.558528621250298e+03  -3.442688131545081e+03   3.712375959197045e+03   4.645872454712890e+03  -6.591728827623188e+00  -2.338723700977782e+00  -3.011226351504156e+00
7.651644783478696e+03  -4.037109494617272e+03   3.475267917120360e+03   4.341227599746920e+03  -6.164242494167904e+00  -2.749517991328458e+00  -3.526311301798657e+00
7.744738279678859e+03  -4.588502635944024e+03   3.201301405469230e+03   3.990412240506444e+03  -5.671242079731435e+00  -3.131121073900246e+00  -4.003854726551805e+00
7.837808664143085e+03  -5.091027149347893e+03   2.893403479144798e+03   3.597184275748600e+03  -5.117966450492540e+00  -3.479488150209493e+00  -4.438780493397621e+00
7.930855567229446e+03  -5.539365959199938e+03   2.554859690100694e+03   3.165750934779794e+03  -4.510299383768887e+00  -3.790923343803711e+00  -4.826461226933381e+00
8.023880267911591e+03  -5.928788080280588e+03   2.189272769576842e+03   2.700715806477414e+03  -3.854698200812501e+00  -4.062124932380109e+00  -5.162775071136556e+00
8.116886024444830e+03  -6.255194836064689e+03   1.800520892902736e+03   2.207025466450426e+03  -3.158120680481636e+00  -4.290219704571613e+00  -5.444148654652702e+00
8.209874558681622e+03  -6.515147796070341e+03   1.392730636420771e+03   1.689934795876981e+03  -2.427977089946562e+00  -4.472784881829208e+00  -5.667584555174577e+00
8.302849794609938e+03  -6.705916964604397e+03   9.702180409417208e+02   1.154931839507336e+03  -1.672023805111591e+00  -4.607884302663427e+00  -5.830706173493458e+00
8.395816626842134e+03  -6.825500359244115e+03   5.374476661397375e+02   6.076856235805235e+02  -8.982880086887484e-01  -4.694084562110659e+00  -5.931777536178370e+00
8.488779991166666e+03  -6.872641175824558e+03   9.899038327149105e+01   5.399239426254024e+01  -1.149890691904191e-01  -4.730469082015037e+00  -5.969720408978588e+00
8.581743892037775e+03  -6.846841498645700e+03  -3.405192266840476e+02  -5.002786174857428e+02   6.695415855854341e-01  -4.716649207473180e+00  -5.944127593755550e+00
8.674713885085657e+03  -6.748367653259192e+03  -7.764425330684711e+02  -1.049260875904311e+03   1.446971473115299e+00  -4.652768974184212e+00  -5.855267858129200e+00
8.767694354464766e+03  -6.578247527348532e+03  -1.204172057881759e+03  -1.587135281311805e+03   2.209034415118964e+00  -4.539503334429792e+00  -5.704082997567262e+00
8.860689541313332e+03  -6.338261358247808e+03  -1.619184175454466e+03  -2.108196917781805e+03   2.947628763138283e+00  -4.378051260941144e+00  -5.492178054767225e+00
8.953703399479855e+03  -6.030924216922040e+03  -2.017085524760405e+03  -2.606913774008755e+03   3.654903608986969e+00  -4.170122385770020e+00  -5.221803440103842e+00
9.046738679276314e+03  -5.659464719753142e+03  -2.393655246536051e+03  -3.077980145892642e+03   4.323336459522693e+00  -3.917920472811726e+00  -4.895833091116292e+00
9.139796806150116e+03  -5.227795803400065e+03  -2.744889907155017e+03  -3.516373329822362e+03   4.945814341466356e+00  -3.624121139273265e+00  -4.517735277996286e+00
9.232878463750239e+03  -4.740474254676320e+03  -3.067049262819285e+03  -3.917411233805991e+03   5.515714875474329e+00  -3.291841797053470e+00  -4.091533526519179e+00
9.325984816951677e+03  -4.202647010336490e+03  -3.356700393752714e+03  -4.276807758362033e+03   6.026982899375239e+00  -2.924602708219795e+00  -3.621756310742023e+00
9.419112850469537e+03  -3.620025605799196e+03  -3.610741037555255e+03  -4.590702222084436e+03   6.474169028973781e+00  -2.526307697801121e+00  -3.113411968377742e+00
9.512261219008360e+03  -2.998794309246491e+03  -3.826452985805198e+03  -4.855725939276665e+03   6.852520228501003e+00  -2.101180241384704e+00  -2.571906606010102e+00
9.605426411912777e+03  -2.345567648370825e+03  -4.001521229629272e+03  -5.069026100708470e+03   7.158009222757143e+00  -1.653734070085477e+00  -2.003006272389107e+00
9.698603978392202e+03  -1.667313609035494e+03  -4.134064833046946e+03  -5.228304023181160e+03   7.387384385369204e+00  -1.188721197330244e+00  -1.412770345825018e+00
9.791789452568628e+03  -9.712719944642830e+02  -4.222659983800958e+03  -5.331843424854561e+03   7.538205993587366e+00  -7.110774395363296e-01  -8.074818878290235e-01
9.884976603335235e+03  -2.648890093381308e+02  -4.266354942996666e+03  -5.378528624520631e+03   7.608869004120909e+00  -2.258797769965457e-01  -1.935930995010412e-01
9.978160768991802e+03   4.442888557973591e+02  -4.264683708130246e+03  -5.367860586181688e+03   7.598624257450119e+00   2.617237215441489e-01   4.223638780540561e-01
1.007133624837734e+04   1.148677786730033e+03  -4.217669181967280e+03  -5.299960186268120e+03   7.507582768483710e+00   7.465541193021468e-01   1.033828242244533e+00
1.016449943685438e+04   1.840762840976738e+03  -4.125821580595063e+03  -5.175564905158182e+03   7.336712506048946e+00   1.223471606879138e+00   1.634299331351474e+00
1.025764434628654e+04   2.513146212792808e+03  -3.990135532384730e+03  -4.996024525489455e+03   7.087834768853520e+00   1.687405961288502e+00   2.217375460026970e+00
1.035076708317501e+04   3.158661122070928e+03  -3.812075296670590e+03  -4.763280991597635e+03   6.763599822913111e+00   2.133432792804554e+00   2.776850338275416e+00
1.044386602687882e+04   3.770448131716535e+03  -3.593553751282163e+03  -4.479840815835777e+03   6.367452594252151e+00   2.556824764324602e+00   3.306777722096702e+00
1.053693875775207e+04   4.342006642455846e+03  -3.336916220138825e+03  -4.148753867007927e+03   5.903607641717341e+00   2.953086522509217e+00   3.801515578917418e+00
END Ephemeris

